start=new Date('2022-11-18T00:00:00.000Z').valueOf();
sats=[{"NORAD_CAT_ID":"47643","MEAN_MOTION":"15.06398080","BSTAR":"0.00019027000000","SITE":"AFETR","OBJECT_NAME":"STARLINK-2022","ARG_OF_PERICENTER":"127.1549","OBJECT_ID":"2021-012Z","PERIOD":"95.592","TLE_LINE2":"2 47643  53.0535  74.7614 0001571 127.1549 232.9583 15.06398080 98187","REV_AT_EPOCH":"9818","EPHEMERIS_TYPE":"0","TLE_LINE1":"1 47643U 21012Z   22321.64157485  .00002554  00000-0  19027-3 0  9998","ELEMENT_SET_NO":"999","CLASSIFICATION_TYPE":"U","MEAN_ANOMALY":"232.9583","ECCENTRICITY":"0.00015710","FILE":"3661914","EPOCH":"2022-11-17T15:23:52.067040","REF_FRAME":"TEME","OBJECT_TYPE":"PAYLOAD","GP_ID":"218094426","APOAPSIS":"548.307","DECAY_DATE":null,"TIME_SYSTEM":"UTC","LAUNCH_DATE":"2021-02-16","CENTER_NAME":"EARTH","SEMIMAJOR_AXIS":"6925.354","COUNTRY_CODE":"US","MEAN_MOTION_DOT":"0.00002554","RCS_SIZE":"LARGE","PERIAPSIS":"546.131","RA_OF_ASC_NODE":"74.7614","MEAN_ELEMENT_THEORY":"SGP4","INCLINATION":"53.0535","MEAN_MOTION_DDOT":"0.0000000000000"},{"BSTAR":"-0.00004230700000","NORAD_CAT_ID":"47644","MEAN_MOTION":"15.06390298","PERIOD":"95.593","OBJECT_NAME":"STARLINK-2026","SITE":"AFETR","OBJECT_ID":"2021-012AA","ARG_OF_PERICENTER":"72.6125","TLE_LINE2":"2 47644  53.0554  95.0008 0001425  72.6125 287.5019 15.06390298 97906","REV_AT_EPOCH":"9790","TLE_LINE1":"1 47644U 21012AA  22321.58813463 -.00000911  00000-0 -42307-4 0  9992","CLASSIFICATION_TYPE":"U","ELEMENT_SET_NO":"999","EPHEMERIS_TYPE":"0","MEAN_ANOMALY":"287.5019","ECCENTRICITY":"0.00014250","REF_FRAME":"TEME","GP_ID":"218095177","APOAPSIS":"548.230","OBJECT_TYPE":"PAYLOAD","FILE":"3661914","EPOCH":"2022-11-17T14:06:54.832032","RCS_SIZE":"LARGE","PERIAPSIS":"546.256","DECAY_DATE":null,"TIME_SYSTEM":"UTC","LAUNCH_DATE":"2021-02-16","CENTER_NAME":"EARTH","MEAN_MOTION_DOT":"-0.00000911","COUNTRY_CODE":"US","SEMIMAJOR_AXIS":"6925.378","MEAN_MOTION_DDOT":"0.0000000000000","INCLINATION":"53.0554","RA_OF_ASC_NODE":"95.0008","MEAN_ELEMENT_THEORY":"SGP4"},{"TLE_LINE2":"2 47645  53.0557  65.1541 0001308  86.1161 273.9978 15.06388110 98296","REV_AT_EPOCH":"9829","OBJECT_NAME":"STARLINK-2027","SITE":"AFETR","OBJECT_ID":"2021-012AB","ARG_OF_PERICENTER":"86.1161","PERIOD":"95.593","NORAD_CAT_ID":"47645","MEAN_MOTION":"15.06388110","BSTAR":"0.00004011800000","RA_OF_ASC_NODE":"65.1541","MEAN_ELEMENT_THEORY":"SGP4","MEAN_MOTION_DDOT":"0.0000000000000","INCLINATION":"53.0557","TIME_SYSTEM":"UTC","DECAY_DATE":null,"LAUNCH_DATE":"2021-02-16","CENTER_NAME":"EARTH","MEAN_MOTION_DOT":"0.00000316","COUNTRY_CODE":"US","SEMIMAJOR_AXIS":"6925.385","RCS_SIZE":"LARGE","PERIAPSIS":"546.344","FILE":"3661914","EPOCH":"2022-11-17T14:37:28.310880","REF_FRAME":"TEME","GP_ID":"218095920","APOAPSIS":"548.156","OBJECT_TYPE":"PAYLOAD","TLE_LINE1":"1 47645U 21012AB  22321.60935545  .00000316  00000-0  40118-4 0  9997","ELEMENT_SET_NO":"999","CLASSIFICATION_TYPE":"U","EPHEMERIS_TYPE":"0","ECCENTRICITY":"0.00013080","MEAN_ANOMALY":"273.9978"},{"OBJECT_ID":"2021-012AC","ARG_OF_PERICENTER":"44.7553","OBJECT_NAME":"STARLINK-2028","SITE":"AFETR","PERIOD":"95.592","MEAN_MOTION":"15.06402359","NORAD_CAT_ID":"47646","BSTAR":"0.00028844000000","TLE_LINE2":"2 47646  53.0550  29.9151 0002062  44.7553 315.3602 15.06402359 98790","REV_AT_EPOCH":"9879","EPOCH":"2022-11-17T15:53:46.024800","FILE":"3661914","APOAPSIS":"548.634","GP_ID":"218094677","OBJECT_TYPE":"PAYLOAD","REF_FRAME":"TEME","ECCENTRICITY":"0.00020620","MEAN_ANOMALY":"315.3602","CLASSIFICATION_TYPE":"U","TLE_LINE1":"1 47646U 21012AC  22321.66233825  .00004017  00000-0  28844-3 0  9999","ELEMENT_SET_NO":"999","EPHEMERIS_TYPE":"0","MEAN_ELEMENT_THEORY":"SGP4","RA_OF_ASC_NODE":"29.9151","MEAN_MOTION_DDOT":"0.0000000000000","INCLINATION":"53.0550","MEAN_MOTION_DOT":"0.00004017","SEMIMAJOR_AXIS":"6925.341","COUNTRY_CODE":"US","DECAY_DATE":null,"TIME_SYSTEM":"UTC","LAUNCH_DATE":"2021-02-16","CENTER_NAME":"EARTH","PERIAPSIS":"545.778","RCS_SIZE":"LARGE"},{"BSTAR":"-0.00008064800000","NORAD_CAT_ID":"47647","MEAN_MOTION":"15.06384018","PERIOD":"95.593","SITE":"AFETR","OBJECT_NAME":"STARLINK-2030","ARG_OF_PERICENTER":"78.1777","OBJECT_ID":"2021-012AD","TLE_LINE2":"2 47647  53.0551  94.0628 0001297  78.1777 281.9358 15.06384018 97934","REV_AT_EPOCH":"9793","EPHEMERIS_TYPE":"0","CLASSIFICATION_TYPE":"U","TLE_LINE1":"1 47647U 21012AD  22321.79823578 -.00001482  00000-0 -80648-4 0  9990","ELEMENT_SET_NO":"999","ECCENTRICITY":"0.00012970","MEAN_ANOMALY":"281.9358","REF_FRAME":"TEME","OBJECT_TYPE":"PAYLOAD","APOAPSIS":"548.161","GP_ID":"218094927","FILE":"3661914","EPOCH":"2022-11-17T19:09:27.571392","RCS_SIZE":"LARGE","PERIAPSIS":"546.364","LAUNCH_DATE":"2021-02-16","DECAY_DATE":null,"TIME_SYSTEM":"UTC","CENTER_NAME":"EARTH","SEMIMAJOR_AXIS":"6925.398","COUNTRY_CODE":"US","MEAN_MOTION_DOT":"-0.00001482","INCLINATION":"53.0551","MEAN_MOTION_DDOT":"0.0000000000000","RA_OF_ASC_NODE":"94.0628","MEAN_ELEMENT_THEORY":"SGP4"},{"PERIAPSIS":"546.310","RCS_SIZE":"MEDIUM","MEAN_MOTION_DOT":"0.00002373","COUNTRY_CODE":"US","SEMIMAJOR_AXIS":"6925.350","TIME_SYSTEM":"UTC","DECAY_DATE":null,"LAUNCH_DATE":"2021-02-16","CENTER_NAME":"EARTH","MEAN_MOTION_DDOT":"0.0000000000000","INCLINATION":"53.0562","MEAN_ELEMENT_THEORY":"SGP4","RA_OF_ASC_NODE":"74.1044","ECCENTRICITY":"0.00013070","MEAN_ANOMALY":"295.7585","TLE_LINE1":"1 47648U 21012AE  22321.78900704  .00002373  00000-0  17814-3 0  9999","ELEMENT_SET_NO":"999","CLASSIFICATION_TYPE":"U","EPHEMERIS_TYPE":"0","APOAPSIS":"548.120","GP_ID":"218095678","OBJECT_TYPE":"PAYLOAD","REF_FRAME":"TEME","EPOCH":"2022-11-17T18:56:10.208256","FILE":"3661914","REV_AT_EPOCH":"9821","TLE_LINE2":"2 47648  53.0562  74.1044 0001307  64.3539 295.7585 15.06399630 98216","BSTAR":"0.00017814000000","MEAN_MOTION":"15.06399630","NORAD_CAT_ID":"47648","PERIOD":"95.592","OBJECT_ID":"2021-012AE","ARG_OF_PERICENTER":"64.3539","OBJECT_NAME":"STARLINK-2031","SITE":"AFETR"},{"TLE_LINE2":"2 47649  53.0554  74.0915 0001368  86.8167 273.2979 15.06392683 98216","REV_AT_EPOCH":"9821","BSTAR":"0.00015621000000","NORAD_CAT_ID":"47649","MEAN_MOTION":"15.06392683","PERIOD":"95.593","SITE":"AFETR","OBJECT_NAME":"STARLINK-2032","ARG_OF_PERICENTER":"86.8167","OBJECT_ID":"2021-012AF","RCS_SIZE":"LARGE","PERIAPSIS":"546.289","DECAY_DATE":null,"LAUNCH_DATE":"2021-02-16","CENTER_NAME":"EARTH","TIME_SYSTEM":"UTC","COUNTRY_CODE":"US","SEMIMAJOR_AXIS":"6925.371","MEAN_MOTION_DOT":"0.00002046","INCLINATION":"53.0554","MEAN_MOTION_DDOT":"0.0000000000000","RA_OF_ASC_NODE":"74.0915","MEAN_ELEMENT_THEORY":"SGP4","EPHEMERIS_TYPE":"0","CLASSIFICATION_TYPE":"U","TLE_LINE1":"1 47649U 21012AF  22321.79269446  .00002046  00000-0  15621-3 0  9993","ELEMENT_SET_NO":"999","MEAN_ANOMALY":"273.2979","ECCENTRICITY":"0.00013680","REF_FRAME":"TEME","OBJECT_TYPE":"PAYLOAD","APOAPSIS":"548.183","GP_ID":"218095420","FILE":"3661914","EPOCH":"2022-11-17T19:01:28.801344"},{"MEAN_MOTION_DDOT":"0.0000000000000","INCLINATION":"53.0560","MEAN_ELEMENT_THEORY":"SGP4","RA_OF_ASC_NODE":"75.0489","PERIAPSIS":"546.193","RCS_SIZE":"LARGE","MEAN_MOTION_DOT":"-0.00001271","COUNTRY_CODE":"US","SEMIMAJOR_AXIS":"6925.412","TIME_SYSTEM":"UTC","DECAY_DATE":null,"LAUNCH_DATE":"2021-02-16","CENTER_NAME":"EARTH","GP_ID":"218094177","APOAPSIS":"548.362","OBJECT_TYPE":"PAYLOAD","REF_FRAME":"TEME","EPOCH":"2022-11-17T13:53:39.431040","FILE":"3661914","MEAN_ANOMALY":"262.5912","ECCENTRICITY":"0.00015660","TLE_LINE1":"1 47650U 21012AG  22321.57892860 -.00001271  00000-0 -66511-4 0  9999","CLASSIFICATION_TYPE":"U","ELEMENT_SET_NO":"999","EPHEMERIS_TYPE":"0","TLE_LINE2":"2 47650  53.0560  75.0489 0001566  97.5255 262.5912 15.06379249 98164","REV_AT_EPOCH":"9816","PERIOD":"95.593","OBJECT_ID":"2021-012AG","ARG_OF_PERICENTER":"97.5255","OBJECT_NAME":"STARLINK-2033","SITE":"AFETR","BSTAR":"-0.00006651100000","MEAN_MOTION":"15.06379249","NORAD_CAT_ID":"47650"},{"MEAN_MOTION_DOT":"0.00013764","COUNTRY_CODE":"US","SEMIMAJOR_AXIS":"6925.556","DECAY_DATE":null,"CENTER_NAME":"EARTH","LAUNCH_DATE":"2021-02-16","TIME_SYSTEM":"UTC","PERIAPSIS":"546.299","RCS_SIZE":"LARGE","MEAN_ELEMENT_THEORY":"SGP4","RA_OF_ASC_NODE":"94.3253","MEAN_MOTION_DDOT":"0.0000000000000","INCLINATION":"53.0545","ECCENTRICITY":"0.00016200","MEAN_ANOMALY":"253.6024","CLASSIFICATION_TYPE":"U","TLE_LINE1":"1 47651U 21012AH  22321.75032410  .00013764  00000-0  94280-3 0  9998","ELEMENT_SET_NO":"999","EPHEMERIS_TYPE":"0","EPOCH":"2022-11-17T18:00:28.002240","FILE":"3661914","GP_ID":"218094427","APOAPSIS":"548.543","OBJECT_TYPE":"PAYLOAD","REF_FRAME":"TEME","REV_AT_EPOCH":"9792","TLE_LINE2":"2 47651  53.0545  94.3253 0001620 106.5143 253.6024 15.06332305 97929","MEAN_MOTION":"15.06332305","NORAD_CAT_ID":"47651","BSTAR":"0.00094280000000","OBJECT_ID":"2021-012AH","ARG_OF_PERICENTER":"106.5143","OBJECT_NAME":"STARLINK-2035","SITE":"AFETR","PERIOD":"95.596"},{"MEAN_ANOMALY":"280.7127","ECCENTRICITY":"0.00013070","TLE_LINE1":"1 47652U 21012AJ  22321.83878502  .00000523  00000-0  54001-4 0  9995","CLASSIFICATION_TYPE":"U","ELEMENT_SET_NO":"999","EPHEMERIS_TYPE":"0","EPOCH":"2022-11-17T20:07:51.025728","FILE":"3661914","APOAPSIS":"548.163","GP_ID":"218095178","OBJECT_TYPE":"PAYLOAD","REF_FRAME":"TEME","MEAN_MOTION_DOT":"0.00000523","SEMIMAJOR_AXIS":"6925.393","COUNTRY_CODE":"US","TIME_SYSTEM":"UTC","DECAY_DATE":null,"LAUNCH_DATE":"2021-02-16","CENTER_NAME":"EARTH","PERIAPSIS":"546.352","RCS_SIZE":"LARGE","MEAN_ELEMENT_THEORY":"SGP4","RA_OF_ASC_NODE":"93.8704","MEAN_MOTION_DDOT":"0.0000000000000","INCLINATION":"53.0555","MEAN_MOTION":"15.06385618","NORAD_CAT_ID":"47652","BSTAR":"0.00005400100000","OBJECT_ID":"2021-012AJ","ARG_OF_PERICENTER":"79.4009","OBJECT_NAME":"STARLINK-2036","SITE":"AFETR","PERIOD":"95.593","REV_AT_EPOCH":"9793","TLE_LINE2":"2 47652  53.0555  93.8704 0001307  79.4009 280.7127 15.06385618 97938"}];
